ONEWEB-0208             
1 48243U 21031AK  25068.38476740  .00000229  00000+0  58276-3 0  9991
2 48243  87.9057  22.1180 0001913  76.1329 284.0013 13.14502118187241
ONEWEB-0200             
1 48244U 21031AL  25068.42441449 -.00000069  00000+0 -22072-3 0  9994
2 48244  87.9059  22.1032 0001916  74.3055 285.8286 13.14503907187179
ONEWEB-0217             
1 48245U 21031AM  25068.36415608 -.00000125  00000+0 -37139-3 0  9999
2 48245  87.9057  22.1001 0001982  72.4403 287.6943 13.14503894187112
ONEWEB-0211             
1 48767U 21045A   25068.75834263  .00051636  00000+0  13453+0 0  9998
2 48767  87.9140 351.6798 0005805 148.5864 211.5614 13.16460851184486
ONEWEB-0223             
1 48768U 21045B   25068.33086538  .00000083  00000+0  18649-3 0  9993
2 48768  87.9141 351.7830 0002364  77.0585 283.0809 13.15550589183283
ONEWEB-0230             
1 48769U 21045C   25068.22629079  .00000207  00000+0  51645-3 0  9996
2 48769  87.9120 351.8641 0001860  83.9093 276.2249 13.15550675183538
ONEWEB-0237             
1 48770U 21045D   25068.29125438  .00000117  00000+0  27649-3 0  9992
2 48770  87.9143 351.8052 0002207  79.0708 281.0671 13.15551223183269
ONEWEB-0235             
1 48771U 21045E   25068.72225722 -.00000129  00000+0 -37734-3 0  9999
2 48771  87.9138 351.7087 0002502  79.5859 280.5553 13.15548804184435
ONEWEB-0242             
1 48772U 21045F   25068.33562943 -.00000201  00000+0 -56915-3 0  9999
2 48772  87.9137 351.7716 0002046  82.3848 277.7514 13.15548562183308
ONEWEB-0241             
1 48773U 21045G   25068.32295870  .00000135  00000+0  32559-3 0  9993
2 48773  87.9142 351.8439 0002114  70.5894 289.5465 13.15549996183212
ONEWEB-0243             
1 48774U 21045H   25068.27858604 -.00000174  00000+0 -49629-3 0  9999
2 48774  87.9144 351.8157 0002394  82.0348 278.1054 13.15549022184369
ONEWEB-0222             
1 48775U 21045J   25068.33800204  .00000005  00000+0 -21703-4 0  9996
2 48775  87.9135 351.7787 0001954  74.6093 285.5253 13.15550487183283
ONEWEB-0244             
1 48776U 21045K   25068.21201759  .00000041  00000+0  76143-4 0  9991
2 48776  87.9132 351.7827 0001958  82.9417 277.1936 13.15550489183830
ONEWEB-0247             
1 48777U 21045L   25068.28491109 -.00000309  00000+0 -85572-3 0  9993
2 48777  87.9140 351.8297 0002865  80.8657 279.2798 13.15547582184417
ONEWEB-0245             
1 48778U 21045M   25068.28016970 -.00000120  00000+0 -35205-3 0  9992
2 48778  87.9134 351.8035 0001938  71.7578 288.3763 13.15549702184387
ONEWEB-0229             
1 48779U 21045N   25068.27540789 -.00000159  00000+0 -45526-3 0  9991
2 48779  87.9136 351.8017 0001982  81.2680 278.8675 13.15550618184417
ONEWEB-0228             
1 48780U 21045P   25068.30881649  .00000124  00000+0  29487-3 0  9998
2 48780  87.9133 351.7724 0002013  79.6981 280.4376 13.15545897183207
ONEWEB-0232             
1 48781U 21045Q   25068.28333101  .00000146  00000+0  35284-3 0  9997
2 48781  87.9129 351.7784 0002026  77.5274 282.6083 13.15544685184647
ONEWEB-0231             
1 48782U 21045R   25068.33720844 -.00000004  00000+0 -45017-4 0  9999
2 48782  87.9124 351.8281 0002131  78.7972 281.3398 13.15550713183228
ONEWEB-0234             
1 48783U 21045S   25068.28095189 -.00000012  00000+0 -65390-4 0  9996
2 48783  87.9135 351.7877 0001264  36.8846 323.2371 13.15550854184484
ONEWEB-0238             
1 48784U 21045T   25068.31107206  .00000133  00000+0  31898-3 0  9992
2 48784  87.9135 351.7980 0001745  76.7335 283.3990 13.15549728183255
ONEWEB-0240             
1 48785U 21045U   25068.32056819  .00000174  00000+0  42841-3 0  9992
2 48785  87.9135 351.7622 0002103  70.0988 290.0369 13.15547037183288
ONEWEB-0246             
1 48786U 21045V   25068.31503223  .00000109  00000+0  25669-3 0  9995
2 48786  87.9138 351.7719 0001954  81.7330 278.4022 13.15549290183157
ONEWEB-0210             
1 48787U 21045W   25068.28967491  .00000062  00000+0  13105-3 0  9993
2 48787  87.9133 351.7781 0002550  87.6264 272.5158 13.15550470184323
ONEWEB-0214             
1 48788U 21045X   25068.22312084  .00000073  00000+0  16047-3 0  9990
2 48788  87.9133 351.7805 0002245  89.5933 270.5455 13.15550516183155
ONEWEB-0221             
1 48789U 21045Y   25068.30552322  .00000177  00000+0  43631-3 0  9995
2 48789  87.9139 351.7894 0001996  76.1934 283.9419 13.15546854183254
ONEWEB-0213             
1 48790U 21045Z   25068.29443371  .00000130  00000+0  31013-3 0  9998
2 48790  87.9135 351.8006 0002142  79.7268 280.4103 13.15549576183314
ONEWEB-0212             
1 48791U 21045AA  25068.34751781 -.00000264  00000+0 -73469-3 0  9993
2 48791  87.9141 351.7785 0001866  77.8979 282.2360 13.15547935183317
ONEWEB-0227             
1 48792U 21045AB  25068.34671593 -.00000065  00000+0 -20614-3 0  9999
2 48792  87.9139 351.7910 0001969  76.2867 283.8482 13.15550365183265
ONEWEB-0226             
1 48793U 21045AC  25068.34038239 -.00000016  00000+0 -76628-4 0  9997
2 48793  87.9138 351.7967 0002216  82.6491 277.4891 13.15547978183233
ONEWEB-0224             
1 48794U 21045AD  25068.22788124  .00000126  00000+0  30135-3 0  9992
2 48794  87.9140 351.8513 0002254  52.7938 307.3398 13.15549703183144
ONEWEB-0233             
1 48795U 21045AE  25068.30856070  .00000150  00000+0  36326-3 0  9993
2 48795  87.9139 351.8455 0002149  74.2101 285.9266 13.15555694183176
ONEWEB-0190             
1 48796U 21045AF  25068.29601477  .00000140  00000+0  33888-3 0  9990
2 48796  87.9139 351.8108 0002703  77.4377 282.7055 13.15546920183249
ONEWEB-0236             
1 48797U 21045AG  25068.31344178  .00000168  00000+0  41272-3 0  9992
2 48797  87.9144 351.8113 0001928  75.2980 284.8364 13.15547137183131
ONEWEB-0248             
1 48798U 21045AH  25068.32612666  .00000135  00000+0  32402-3 0  9993
2 48798  87.9136 351.7762 0002412  66.1227 294.0156 13.15549908183291
ONEWEB-0225             
1 48799U 21045AJ  25068.72857826 -.00000340  00000+0 -93815-3 0  9992
2 48799  87.9141 351.7214 0002173  75.0988 285.0383 13.15548022184498
ONEWEB-0215             
1 48800U 21045AK  25068.31820106  .00000155  00000+0  37818-3 0  9994
2 48800  87.9133 351.7615 0002509  70.1610 289.9791 13.15550063183176
ONEWEB-0216             
1 48801U 21045AL  25068.32770217  .00000049  00000+0  94886-4 0  9994
2 48801  87.9137 351.8038 0001946  85.2905 274.8447 13.15550704183183
ONEWEB-0239             
1 48802U 21045AM  25068.33245072  .00000046  00000+0  87572-4 0  9993
2 48802  87.9147 351.8018 0002549  64.7096 295.4298 13.15551603183223
ONEWEB-0249             
1 48967U 21060A   25068.71067465 -.00000004  00000+0 -44442-4 0  9997
2 48967  87.9104 321.3626 0001656  76.4394 283.6922 13.16595896179786
ONEWEB-0250             
1 48968U 21060B   25068.26539946  .00000060  00000+0  10812-3 0  9999
2 48968  87.9101 320.7280 0002486  55.6101 304.5270 13.25704645178614
ONEWEB-0252             
1 48970U 21060D   25068.21036570  .00000099  00000+0  22449-3 0  9993
2 48970  87.9102 321.4557 0001779  91.7586 268.3748 13.16595199178478
ONEWEB-0253             
1 48971U 21060E   25068.19928124 -.00000010  00000+0 -59608-4 0  9999
2 48971  87.9100 321.4644 0001979  78.5688 281.5665 13.16595586178400
ONEWEB-0254             
1 48972U 21060F   25068.20877746  .00000114  00000+0  26387-3 0  9995
2 48972  87.9103 321.4449 0002080  70.6117 289.5239 13.16592702178403
ONEWEB-0255             
1 48973U 21060G   25068.62676302  .00000077  00000+0  16842-3 0  9990
2 48973  87.9104 321.3956 0001967  73.9905 286.1442 13.16596048178531
ONEWEB-0256             
1 48974U 21060H   25068.19689363 -.00000361  00000+0 -97832-3 0  9990
2 48974  87.9104 321.4924 0001708  84.8225 275.3100 13.16594245178445
ONEWEB-0257             
1 48975U 21060J   25068.76133205  .00000069  00000+0  14710-3 0  9990
2 48975  87.9102 321.3438 0001930  80.8099 279.3250 13.16597148179766
ONEWEB-0258             
1 48976U 21060K   25068.76292568  .00000048  00000+0  92346-4 0  9998
2 48976  87.9103 321.3710 0001666  76.8394 283.2922 13.16595484179761
ONEWEB-0259             
1 48977U 21060L   25068.22460896  .00000130  00000+0  30740-3 0  9992
2 48977  87.9102 321.4624 0001817  72.1406 287.9923 13.16596461178449
ONEWEB-0260             
1 48978U 21060M   25068.21590469  .00000133  00000+0  31490-3 0  9998
2 48978  87.9103 321.4938 0001890  96.5174 263.6172 13.16596665178423
ONEWEB-0261             
1 48979U 21060N   25068.26180916  .00000078  00000+0  17057-3 0  9997
2 48979  87.9107 321.4849 0002239  82.4917 277.6468 13.16597688178481
ONEWEB-0262             
1 48980U 21060P   25068.62200261  .00000074  00000+0  15934-3 0  9993
2 48980  87.9103 321.3701 0001775  69.3140 290.8181 13.16597259178495
ONEWEB-0263             
1 48981U 21060Q   25068.19768840 -.00000023  00000+0 -94435-4 0  9998
2 48981  87.9105 321.4790 0002144  75.4791 284.6578 13.16595048178404
ONEWEB-0264             
1 48982U 21060R   25068.76688323  .00000028  00000+0  40781-4 0  9997
2 48982  87.9105 321.3751 0001764  79.4745 280.6585 13.16595675179772
ONEWEB-0266             
1 48984U 21060T   25068.25626759 -.00000302  00000+0 -82449-3 0  9991
2 48984  87.9104 321.4470 0001654  74.7977 285.3337 13.16594778178404
ONEWEB-0267             
1 48985U 21060U   25068.19135862 -.00000017  00000+0 -78322-4 0  9994
2 48985  87.9104 321.4622 0002015  80.2723 279.8636 13.16596120178400
ONEWEB-0268             
1 48986U 21060V   25068.76765876  .00000067  00000+0  14076-3 0  9990
2 48986  87.9103 321.3546 0001752  85.2267 274.9064 13.16596468180037
ONEWEB-0269             
1 48987U 21060W   25068.59668542  .00000043  00000+0  77771-4 0  9990
2 48987  87.9105 321.4220 0001699  82.5045 277.6279 13.16594826178495
ONEWEB-0270             
1 48988U 21060X   25068.76609184  .00000028  00000+0  39008-4 0  9991
2 48988  87.9102 321.3598 0002108  74.5902 285.5461 13.16592760179867
